{
  "type": "FeatureCollection",
  "features": [
    {
      "type": "Feature",
      "properties": {
        "norad_id": 36585,
        "name": "GPS BIIF-1  (PRN 25)",
        "group": "gnss",
        "lat": 22.84356233764047,
        "lon": 18.604972861475567,
        "alt_km": 20155.262859774095,
        "timestamp": "2025-12-09T04:51:47.737219+00:00",
        "meta_object_name": "GPS BIIF-1  (PRN 25)",
        "meta_object_id": "2010-022A",
        "meta_epoch": "2025-12-08T05:43:48.381888",
        "meta_mean_motion": 2.00552915,
        "meta_eccentricity": 0.01259265,
        "meta_inclination": 54.3009,
        "meta_ra_of_asc_node": 216.2555,
        "meta_arg_of_pericenter": 65.0249,
        "meta_mean_anomaly": 109.07,
        "meta_ephemeris_type": 0,
        "meta_classification_type": "U",
        "meta_norad_cat_id": 36585,
        "meta_element_set_no": 999,
        "meta_rev_at_epoch": 11376,
        "meta_bstar": 0,
        "meta_mean_motion_dot": 2.3e-07,
        "meta_mean_motion_ddot": 0,
        "tle_line1": "1 36585U 10022A   25342.23875442  .00000023  00000+0  00000+0 0  9996",
        "tle_line2": "2 36585  54.3009 216.2555 0125926  65.0249 109.0700  2.00552915113761"
      },
      "geometry": {
        "type": "Point",
        "coordinates": [
          18.604972861475567,
          22.84356233764047
        ]
      }
    },
    {
      "type": "Feature",
      "properties": {
        "norad_id": 36828,
        "name": "BEIDOU-2 IGSO-1 (C06)",
        "group": "gnss",
        "lat": 54.05416832790687,
        "lon": -98.78854743511218,
        "alt_km": 35892.8496959267,
        "timestamp": "2025-12-09T04:51:47.737231+00:00",
        "meta_object_name": "BEIDOU-2 IGSO-1 (C06)",
        "meta_object_id": "2010-036A",
        "meta_epoch": "2025-12-08T10:41:23.989056",
        "meta_mean_motion": 1.00277305,
        "meta_eccentricity": 0.0051235,
        "meta_inclination": 54.2853,
        "meta_ra_of_asc_node": 164.6865,
        "meta_arg_of_pericenter": 215.8868,
        "meta_mean_anomaly": 325.0672,
        "meta_ephemeris_type": 0,
        "meta_classification_type": "U",
        "meta_norad_cat_id": 36828,
        "meta_element_set_no": 999,
        "meta_rev_at_epoch": 5618,
        "meta_bstar": 0,
        "meta_mean_motion_dot": -6.9e-07,
        "meta_mean_motion_ddot": 0,
        "tle_line1": "1 36828U 10036A   25342.44541654 -.00000069  00000+0  00000+0 0  9990",
        "tle_line2": "2 36828  54.2853 164.6865 0051235 215.8868 325.0672  1.00277305 56186"
      },
      "geometry": {
        "type": "Point",
        "coordinates": [
          -98.78854743511218,
          54.05416832790687
        ]
      }
    },
    {
      "type": "Feature",
      "properties": {
        "norad_id": 37210,
        "name": "BEIDOU-2 G4 (C04)",
        "group": "gnss",
        "lat": -2.799829008265912,
        "lon": -48.7179732351429,
        "alt_km": 35757.843429872264,
        "timestamp": "2025-12-09T04:51:47.737243+00:00",
        "meta_object_name": "BEIDOU-2 G4 (C04)",
        "meta_object_id": "2010-057A",
        "meta_epoch": "2025-12-08T19:30:04.457376",
        "meta_mean_motion": 1.0027123,
        "meta_eccentricity": 0.001099,
        "meta_inclination": 3.1744,
        "meta_ra_of_asc_node": 69.9383,
        "meta_arg_of_pericenter": 189.4969,
        "meta_mean_anomaly": 270.9695,
        "meta_ephemeris_type": 0,
        "meta_classification_type": "U",
        "meta_norad_cat_id": 37210,
        "meta_element_set_no": 999,
        "meta_rev_at_epoch": 5538,
        "meta_bstar": 0,
        "meta_mean_motion_dot": -1.1e-06,
        "meta_mean_motion_ddot": 0,
        "tle_line1": "1 37210U 10057A   25342.81255159 -.00000110  00000+0  00000+0 0  9999",
        "tle_line2": "2 37210   3.1744  69.9383 0010990 189.4969 270.9695  1.00271230 55382"
      },
      "geometry": {
        "type": "Point",
        "coordinates": [
          -48.7179732351429,
          -2.799829008265912
        ]
      }
    },
    {
      "type": "Feature",
      "properties": {
        "norad_id": 37256,
        "name": "BEIDOU-2 IGSO-2 (C07)",
        "group": "gnss",
        "lat": -11.195076753243812,
        "lon": -96.1184228056897,
        "alt_km": 35913.240485498536,
        "timestamp": "2025-12-09T04:51:47.737255+00:00",
        "meta_object_name": "BEIDOU-2 IGSO-2 (C07)",
        "meta_object_id": "2010-068A",
        "meta_epoch": "2025-12-03T17:22:36.026976",
        "meta_mean_motion": 1.0028872,
        "meta_eccentricity": 0.0049245,
        "meta_inclination": 47.9042,
        "meta_ra_of_asc_node": 274.2614,
        "meta_arg_of_pericenter": 216.1411,
        "meta_mean_anomaly": 310.24,
        "meta_ephemeris_type": 0,
        "meta_classification_type": "U",
        "meta_norad_cat_id": 37256,
        "meta_element_set_no": 999,
        "meta_rev_at_epoch": 5483,
        "meta_bstar": 0,
        "meta_mean_motion_dot": -2.25e-06,
        "meta_mean_motion_ddot": 0,
        "tle_line1": "1 37256U 10068A   25337.72402809 -.00000225  00000+0  00000+0 0  9998",
        "tle_line2": "2 37256  47.9042 274.2614 0049245 216.1411 310.2400  1.00288720 54835"
      },
      "geometry": {
        "type": "Point",
        "coordinates": [
          -96.1184228056897,
          -11.195076753243812
        ]
      }
    },
    {
      "type": "Feature",
      "properties": {
        "norad_id": 37384,
        "name": "BEIDOU-2 IGSO-3 (C08)",
        "group": "gnss",
        "lat": -32.12549183740079,
        "lon": -118.64500062226038,
        "alt_km": 35661.30027636001,
        "timestamp": "2025-12-09T04:51:47.737268+00:00",
        "meta_object_name": "BEIDOU-2 IGSO-3 (C08)",
        "meta_object_id": "2011-013A",
        "meta_epoch": "2025-12-07T14:00:04.361184",
        "meta_mean_motion": 1.00271435,
        "meta_eccentricity": 0.0035334,
        "meta_inclination": 62.1366,
        "meta_ra_of_asc_node": 41.9657,
        "meta_arg_of_pericenter": 187.0632,
        "meta_mean_anomaly": 165.2408,
        "meta_ephemeris_type": 0,
        "meta_classification_type": "U",
        "meta_norad_cat_id": 37384,
        "meta_element_set_no": 999,
        "meta_rev_at_epoch": 5373,
        "meta_bstar": 0,
        "meta_mean_motion_dot": -1.91e-06,
        "meta_mean_motion_ddot": 0,
        "tle_line1": "1 37384U 11013A   25341.58338381 -.00000191  00000+0  00000+0 0  9995",
        "tle_line2": "2 37384  62.1366  41.9657 0035334 187.0632 165.2408  1.00271435 53735"
      },
      "geometry": {
        "type": "Point",
        "coordinates": [
          -118.64500062226038,
          -32.12549183740079
        ]
      }
    },
    {
      "type": "Feature",
      "properties": {
        "norad_id": 37605,
        "name": "GSAT-8 (GAGAN/PRN 127)",
        "group": "gnss",
        "lat": 1.3782678659324967,
        "lon": -153.83529969658977,
        "alt_km": 35766.098487658805,
        "timestamp": "2025-12-09T04:51:47.737280+00:00",
        "meta_object_name": "GSAT-8 (GAGAN/PRN 127)",
        "meta_object_id": "2011-022A",
        "meta_epoch": "2025-12-08T19:00:07.325280",
        "meta_mean_motion": 1.00272295,
        "meta_eccentricity": 0.0008914,
        "meta_inclination": 1.6395,
        "meta_ra_of_asc_node": 84.2307,
        "meta_arg_of_pericenter": 180.6821,
        "meta_mean_anomaly": 153.0058,
        "meta_ephemeris_type": 0,
        "meta_classification_type": "U",
        "meta_norad_cat_id": 37605,
        "meta_element_set_no": 999,
        "meta_rev_at_epoch": 5130,
        "meta_bstar": 0,
        "meta_mean_motion_dot": 8.6e-07,
        "meta_mean_motion_ddot": 0,
        "tle_line1": "1 37605U 11022A   25342.79175145  .00000086  00000+0  00000+0 0  9994",
        "tle_line2": "2 37605   1.6395  84.2307 0008914 180.6821 153.0058  1.00272295 51308"
      },
      "geometry": {
        "type": "Point",
        "coordinates": [
          -153.83529969658977,
          1.3782678659324967
        ]
      }
    },
    {
      "type": "Feature",
      "properties": {
        "norad_id": 37763,
        "name": "BEIDOU-2 IGSO-4 (C09)",
        "group": "gnss",
        "lat": 52.596341185130974,
        "lon": -123.89302140657551,
        "alt_km": 36335.70446753894,
        "timestamp": "2025-12-09T04:51:47.737292+00:00",
        "meta_object_name": "BEIDOU-2 IGSO-4 (C09)",
        "meta_object_id": "2011-038A",
        "meta_epoch": "2025-12-01T12:32:09.960000",
        "meta_mean_motion": 1.00284084,
        "meta_eccentricity": 0.0148808,
        "meta_inclination": 54.5806,
        "meta_ra_of_asc_node": 167.4476,
        "meta_arg_of_pericenter": 230.2017,
        "meta_mean_anomaly": 315.0405,
        "meta_ephemeris_type": 0,
        "meta_classification_type": "U",
        "meta_norad_cat_id": 37763,
        "meta_element_set_no": 999,
        "meta_rev_at_epoch": 5266,
        "meta_bstar": 0,
        "meta_mean_motion_dot": 1.01e-06,
        "meta_mean_motion_ddot": 0,
        "tle_line1": "1 37763U 11038A   25335.52233750  .00000101  00000+0  00000+0 0  9994",
        "tle_line2": "2 37763  54.5806 167.4476 0148808 230.2017 315.0405  1.00284084 52669"
      },
      "geometry": {
        "type": "Point",
        "coordinates": [
          -123.89302140657551,
          52.596341185130974
        ]
      }
    }
  ]
}